[
  {
    "OBJECT_NAME": "KUIPER-00300",
    "OBJECT_ID": "2026-072AA",
    "EPOCH": "2026-04-17T05:50:50.348256",
    "MEAN_MOTION": 15.36861866,
    "ECCENTRICITY": 0.00079668,
    "INCLINATION": 51.8665,
    "RA_OF_ASC_NODE": 111.7138,
    "ARG_OF_PERICENTER": 155.4403,
    "MEAN_ANOMALY": 204.6964,
    "EPHEMERIS_TYPE": 0,
    "CLASSIFICATION_TYPE": "U",
    "NORAD_CAT_ID": 68597,
    "ELEMENT_SET_NO": 999,
    "REV_AT_EPOCH": 200,
    "BSTAR": 0.00030921261,
    "MEAN_MOTION_DOT": 0.0001095,
    "MEAN_MOTION_DDOT": 0
  },
  {
    "OBJECT_NAME": "KUIPER-00301",
    "OBJECT_ID": "2026-072AB",
    "EPOCH": "2026-04-17T05:54:40.536000",
    "MEAN_MOTION": 15.36529513,
    "ECCENTRICITY": 0.00086602,
    "INCLINATION": 51.8641,
    "RA_OF_ASC_NODE": 111.7293,
    "ARG_OF_PERICENTER": 158.8308,
    "MEAN_ANOMALY": 201.3038,
    "EPHEMERIS_TYPE": 0,
    "CLASSIFICATION_TYPE": "U",
    "NORAD_CAT_ID": 68598,
    "ELEMENT_SET_NO": 999,
    "REV_AT_EPOCH": 200,
    "BSTAR": 0.0002068722,
    "MEAN_MOTION_DOT": 7.114e-05,
    "MEAN_MOTION_DDOT": 0
  },
  {
    "OBJECT_NAME": "KUIPER-00304",
    "OBJECT_ID": "2026-072AC",
    "EPOCH": "2026-04-17T05:55:44.951520",
    "MEAN_MOTION": 15.3644362,
    "ECCENTRICITY": 0.00092889,
    "INCLINATION": 51.8657,
    "RA_OF_ASC_NODE": 111.735,
    "ARG_OF_PERICENTER": 158.5277,
    "MEAN_ANOMALY": 201.6101,
    "EPHEMERIS_TYPE": 0,
    "CLASSIFICATION_TYPE": "U",
    "NORAD_CAT_ID": 68599,
    "ELEMENT_SET_NO": 999,
    "REV_AT_EPOCH": 200,
    "BSTAR": 0.00029939598,
    "MEAN_MOTION_DOT": 0.00010447,
    "MEAN_MOTION_DDOT": 0
  },
  {
    "OBJECT_NAME": "KUIPER-00317",
    "OBJECT_ID": "2026-072AD",
    "EPOCH": "2026-04-17T05:52:07.396320",
    "MEAN_MOTION": 15.36762194,
    "ECCENTRICITY": 0.00083996,
    "INCLINATION": 51.8679,
    "RA_OF_ASC_NODE": 111.7199,
    "ARG_OF_PERICENTER": 150.906,
    "MEAN_ANOMALY": 209.2395,
    "EPHEMERIS_TYPE": 0,
    "CLASSIFICATION_TYPE": "U",
    "NORAD_CAT_ID": 68600,
    "ELEMENT_SET_NO": 999,
    "REV_AT_EPOCH": 200,
    "BSTAR": 0.00030194222,
    "MEAN_MOTION_DOT": 0.00010649,
    "MEAN_MOTION_DDOT": 0
  },
  {
    "OBJECT_NAME": "KUIPER-00320",
    "OBJECT_ID": "2026-072AE",
    "EPOCH": "2026-04-17T06:01:57.904896",
    "MEAN_MOTION": 15.3595137,
    "ECCENTRICITY": 0.00110308,
    "INCLINATION": 51.8597,
    "RA_OF_ASC_NODE": 111.7573,
    "ARG_OF_PERICENTER": 164.998,
    "MEAN_ANOMALY": 195.1335,
    "EPHEMERIS_TYPE": 0,
    "CLASSIFICATION_TYPE": "U",
    "NORAD_CAT_ID": 68601,
    "ELEMENT_SET_NO": 999,
    "REV_AT_EPOCH": 200,
    "BSTAR": 0.00029276232,
    "MEAN_MOTION_DOT": 0.00010047,
    "MEAN_MOTION_DDOT": 0
  },
  {
    "OBJECT_NAME": "STP-S29A OBJECT A",
    "OBJECT_ID": "2026-074A",
    "EPOCH": "2026-04-17T05:42:50.428224",
    "MEAN_MOTION": 15.23235207,
    "ECCENTRICITY": 0.00165137,
    "INCLINATION": 60.0198,
    "RA_OF_ASC_NODE": 52.0029,
    "ARG_OF_PERICENTER": 316.4341,
    "MEAN_ANOMALY": 43.5434,
    "EPHEMERIS_TYPE": 0,
    "CLASSIFICATION_TYPE": "U",
    "NORAD_CAT_ID": 68627,
    "ELEMENT_SET_NO": 999,
    "REV_AT_EPOCH": 149,
    "BSTAR": 0.00024871354,
    "MEAN_MOTION_DOT": 5.678e-05,
    "MEAN_MOTION_DDOT": 0
  },
  {
    "OBJECT_NAME": "STP-S29A OBJECT B",
    "OBJECT_ID": "2026-074B",
    "EPOCH": "2026-04-17T07:16:21.199296",
    "MEAN_MOTION": 15.23332048,
    "ECCENTRICITY": 0.00149534,
    "INCLINATION": 60.0246,
    "RA_OF_ASC_NODE": 51.7595,
    "ARG_OF_PERICENTER": 319.5458,
    "MEAN_ANOMALY": 40.4509,
    "EPHEMERIS_TYPE": 0,
    "CLASSIFICATION_TYPE": "U",
    "NORAD_CAT_ID": 68628,
    "ELEMENT_SET_NO": 999,
    "REV_AT_EPOCH": 149,
    "BSTAR": 0.00020296363,
    "MEAN_MOTION_DOT": 4.591e-05,
    "MEAN_MOTION_DDOT": 0
  },
  {
    "OBJECT_NAME": "RAWHIDE-1",
    "OBJECT_ID": "2026-074C",
    "EPOCH": "2026-04-17T05:37:56.351136",
    "MEAN_MOTION": 15.23775534,
    "ECCENTRICITY": 0.00183817,
    "INCLINATION": 60.0233,
    "RA_OF_ASC_NODE": 51.9948,
    "ARG_OF_PERICENTER": 325.0185,
    "MEAN_ANOMALY": 34.9686,
    "EPHEMERIS_TYPE": 0,
    "CLASSIFICATION_TYPE": "U",
    "NORAD_CAT_ID": 68629,
    "ELEMENT_SET_NO": 999,
    "REV_AT_EPOCH": 149,
    "BSTAR": 0.00026661606,
    "MEAN_MOTION_DOT": 6.215e-05,
    "MEAN_MOTION_DDOT": 0
  },
  {
    "OBJECT_NAME": "STPSAT-7",
    "OBJECT_ID": "2026-074D",
    "EPOCH": "2026-04-17T04:00:41.205312",
    "MEAN_MOTION": 15.24046079,
    "ECCENTRICITY": 0.00164302,
    "INCLINATION": 60.0233,
    "RA_OF_ASC_NODE": 52.2381,
    "ARG_OF_PERICENTER": 329.7176,
    "MEAN_ANOMALY": 30.2954,
    "EPHEMERIS_TYPE": 0,
    "CLASSIFICATION_TYPE": "U",
    "NORAD_CAT_ID": 68630,
    "ELEMENT_SET_NO": 999,
    "REV_AT_EPOCH": 147,
    "BSTAR": 0.00015332922,
    "MEAN_MOTION_DOT": 3.476e-05,
    "MEAN_MOTION_DDOT": 0
  },
  {
    "OBJECT_NAME": "STP-S29A OBJECT E",
    "OBJECT_ID": "2026-074E",
    "EPOCH": "2026-04-17T05:35:02.047776",
    "MEAN_MOTION": 15.24055874,
    "ECCENTRICITY": 0.00170422,
    "INCLINATION": 60.023,
    "RA_OF_ASC_NODE": 51.9842,
    "ARG_OF_PERICENTER": 329.6722,
    "MEAN_ANOMALY": 30.337,
    "EPHEMERIS_TYPE": 0,
    "CLASSIFICATION_TYPE": "U",
    "NORAD_CAT_ID": 68631,
    "ELEMENT_SET_NO": 999,
    "REV_AT_EPOCH": 149,
    "BSTAR": 0.0001303332,
    "MEAN_MOTION_DOT": 2.913e-05,
    "MEAN_MOTION_DDOT": 0
  },
  {
    "OBJECT_NAME": "RAWHIDE-2",
    "OBJECT_ID": "2026-074F",
    "EPOCH": "2026-04-17T05:30:32.023584",
    "MEAN_MOTION": 15.24583415,
    "ECCENTRICITY": 0.00174378,
    "INCLINATION": 60.0326,
    "RA_OF_ASC_NODE": 51.9848,
    "ARG_OF_PERICENTER": 334.7808,
    "MEAN_ANOMALY": 25.2419,
    "EPHEMERIS_TYPE": 0,
    "CLASSIFICATION_TYPE": "U",
    "NORAD_CAT_ID": 68632,
    "ELEMENT_SET_NO": 999,
    "REV_AT_EPOCH": 148,
    "BSTAR": 0.00026602318,
    "MEAN_MOTION_DOT": 6.354e-05,
    "MEAN_MOTION_DDOT": 0
  },
  {
    "OBJECT_NAME": "CANVAS",
    "OBJECT_ID": "2026-074J",
    "EPOCH": "2026-04-17T04:01:28.575840",
    "MEAN_MOTION": 15.23996332,
    "ECCENTRICITY": 0.00188188,
    "INCLINATION": 60.0247,
    "RA_OF_ASC_NODE": 52.2442,
    "ARG_OF_PERICENTER": 328.6074,
    "MEAN_ANOMALY": 31.3881,
    "EPHEMERIS_TYPE": 0,
    "CLASSIFICATION_TYPE": "U",
    "NORAD_CAT_ID": 68635,
    "ELEMENT_SET_NO": 999,
    "REV_AT_EPOCH": 148,
    "BSTAR": 0.00029692469,
    "MEAN_MOTION_DOT": 7.004e-05,
    "MEAN_MOTION_DDOT": 0
  }
]