KUIPER-00300            
1 68597U 26072AA  26107.24363829  .00010950  00000+0  30921-3 0  9997
2 68597  51.8665 111.7138 0007966 155.4403 204.6964 15.36861866  2003
KUIPER-00301            
1 68598U 26072AB  26107.24630250  .00007114  00000+0  20687-3 0  9999
2 68598  51.8641 111.7293 0008660 158.8308 201.3038 15.36529513  2009
KUIPER-00304            
1 68599U 26072AC  26107.24704805  .00010447  00000+0  29940-3 0  9992
2 68599  51.8657 111.7350 0009288 158.5277 201.6101 15.36443620  2008
KUIPER-00317            
1 68600U 26072AD  26107.24453005  .00010649  00000+0  30194-3 0  9995
2 68600  51.8679 111.7199 0008399 150.9060 209.2395 15.36762194  2003
KUIPER-00320            
1 68601U 26072AE  26107.25136464  .00010047  00000+0  29276-3 0  9995
2 68601  51.8597 111.7573 0011030 164.9980 195.1335 15.35951370  2003
STP-S29A OBJECT A       
1 68627U 26074A   26107.23808366  .00005678  00000+0  24871-3 0  9990
2 68627  60.0198  52.0029 0016513 316.4341  43.5434 15.23235207  1498
STP-S29A OBJECT B       
1 68628U 26074B   26107.30302314  .00004591  00000+0  20296-3 0  9991
2 68628  60.0246  51.7595 0014953 319.5458  40.4509 15.23332048  1496
RAWHIDE-1               
1 68629U 26074C   26107.23467999  .00006215  00000+0  26662-3 0  9993
2 68629  60.0233  51.9948 0018381 325.0185  34.9686 15.23775534  1490
STPSAT-7                
1 68630U 26074D   26107.16714358  .00003476  00000+0  15333-3 0  9990
2 68630  60.0233  52.2381 0016430 329.7176  30.2954 15.24046079  1472
STP-S29A OBJECT E       
1 68631U 26074E   26107.23266259  .00002913  00000+0  13033-3 0  9991
2 68631  60.0230  51.9842 0017042 329.6722  30.3370 15.24055874  1492
RAWHIDE-2               
1 68632U 26074F   26107.22953731  .00006354  00000+0  26602-3 0  9998
2 68632  60.0326  51.9848 0017437 334.7808  25.2419 15.24583415  1488
CANVAS                  
1 68635U 26074J   26107.16769185  .00007004  00000+0  29692-3 0  9997
2 68635  60.0247  52.2442 0018818 328.6074  31.3881 15.23996332  1484
